
# Worst residual: 7.27 km
# MJD 58716.000000 (2019 Aug 21  0:00)
1965-058A = NORAD 01458 = Vela 3a
1 01458U 65058A   19233.49918769  .00000000  00000-0  00000-0 0  3548
2 01458 021.7960 000.3258 4970604 255.1798 043.9998 00.21358577    00

# Worst residual: 14.42 km
# MJD 58717.000000 (2019 Aug 22  0:00)
1965-058A = NORAD 01458 = Vela 3a
1 01458U 65058A   19234.49918769  .00000000  00000-0  00000-0 0  3549
2 01458 021.7849 000.3103 4973948 255.3305 120.5446 00.21325770    04

# Worst residual: 15.79 km
# MJD 58718.000000 (2019 Aug 23  0:00)
1965-058A = NORAD 01458 = Vela 3a
1 01458U 65058A   19235.49918769  .00000000  00000-0  00000-0 0  3540
2 01458 021.7749 000.2610 4995667 255.4965 196.9658 00.21358636    09

# Worst residual: 8.48 km
# MJD 58719.000000 (2019 Aug 24  0:00)
1965-058A = NORAD 01458 = Vela 3a
1 01458U 65058A   19236.49918769  .00000000  00000-0  00000-0 0  3541
2 01458 021.7739 000.2385 5013661 255.6290 273.8257 00.21397880    00

# Worst residual: 37.00 km
# MJD 58720.000000 (2019 Aug 25  0:00)
1965-058A = NORAD 01458 = Vela 3a
1 01458U 65058A   19237.49918769  .00000000  00000-0  00000-0 0  3542
2 01458 021.7736 000.2353 5034832 255.6655 350.9274 00.21330898    02

# Worst residual: 36.96 km
# MJD 58721.000000 (2019 Aug 26  0:00)
1965-058A = NORAD 01458 = Vela 3a
1 01458U 65058A   19238.49918769  .00000000  00000-0  00000-0 0  3543
2 01458 021.7735 000.2323 5022251 255.9399 067.6654 00.21334861    06

# Worst residual: 14.08 km
# MJD 58722.000000 (2019 Aug 27  0:00)
1965-058A = NORAD 01458 = Vela 3a
1 01458U 65058A   19239.49918769  .00000000  00000-0  00000-0 0  3544
2 01458 021.7731 000.2356 5010481 255.7082 145.1787 00.21406016    08

# Worst residual: 15.61 km
# MJD 58723.000000 (2019 Aug 28  0:00)
1965-058A = NORAD 01458 = Vela 3a
1 01458U 65058A   19240.49918769  .00000000  00000-0  00000-0 0  3546
2 01458 021.7731 000.2561 4992562 255.6205 222.3310 00.21370952    09

# Worst residual: 26.86 km
# MJD 58724.000000 (2019 Aug 29  0:00)
1965-058A = NORAD 01458 = Vela 3a
1 01458U 65058A   19241.49918769  .00000000  00000-0  00000-0 0  3547
2 01458 021.7658 000.3008 4963749 255.6212 298.7971 00.21368876    09

# Worst residual: 26.03 km
# MJD 58725.000000 (2019 Aug 30  0:00)
1965-058A = NORAD 01458 = Vela 3a
1 01458U 65058A   19242.49918769  .00000000  00000-0  00000-0 0  3548
2 01458 021.7588 000.3024 4946228 255.6052 015.6276 00.21434026    09

# Worst residual: 6.98 km
# MJD 58726.000000 (2019 Aug 31  0:00)
1965-058A = NORAD 01458 = Vela 3a
1 01458U 65058A   19243.49918769  .00000000  00000-0  00000-0 0  3549
2 01458 021.7587 000.3000 4964558 255.7096 092.2510 00.21344862    07

# Worst residual: 6.74 km
# MJD 58727.000000 (2019 Sep  1  0:00)
1965-058A = NORAD 01458 = Vela 3a
1 01458U 65058A   19244.49918769  .00000000  00000-0  00000-0 0  3540
2 01458 021.7561 000.2961 4970142 255.6949 169.0908 00.21358733    02

# Worst residual: 13.50 km
# MJD 58728.000000 (2019 Sep  2  0:00)
1965-058A = NORAD 01458 = Vela 3a
1 01458U 65058A   19245.49918769  .00000000  00000-0  00000-0 0  3541
2 01458 021.7545 000.2924 4975003 255.6251 246.1782 00.21358057    06

# Worst residual: 25.39 km
# MJD 58729.000000 (2019 Sep  3  0:00)
1965-058A = NORAD 01458 = Vela 3a
1 01458U 65058A   19246.49918769  .00000000  00000-0  00000-0 0  3542
2 01458 021.7551 000.2861 4989782 255.5557 323.2578 00.21308568    02

# Worst residual: 15.34 km
# MJD 58730.000000 (2019 Sep  4  0:00)
1965-058A = NORAD 01458 = Vela 3a
1 01458U 65058A   19247.49918769  .00000000  00000-0  00000-0 0  3543
2 01458 021.7554 000.2958 4982510 255.7570 039.9672 00.21364469    09

# Worst residual: 0.77 km
# MJD 58731.000000 (2019 Sep  5  0:00)
1965-058A = NORAD 01458 = Vela 3a
1 01458U 65058A   19248.49918769  .00000000  00000-0  00000-0 0  3544
2 01458 021.7535 000.2973 4979991 255.7803 116.8560 00.21371110    05

# Worst residual: 0.61 km
# MJD 58732.000000 (2019 Sep  6  0:00)
1965-058A = NORAD 01458 = Vela 3a
1 01458U 65058A   19249.49918769  .00000000  00000-0  00000-0 0  3545
2 01458 021.7530 000.3027 4980435 255.7968 193.7246 00.21372194    06

# Worst residual: 2.84 km
# MJD 58733.000000 (2019 Sep  7  0:00)
1965-058A = NORAD 01458 = Vela 3a
1 01458U 65058A   19250.49918769  .00000000  00000-0  00000-0 0  3547
2 01458 021.7516 000.3025 4978909 255.8017 270.6100 00.21366063    09

# Worst residual: 30.71 km
# MJD 58734.000000 (2019 Sep  8  0:00)
1965-058A = NORAD 01458 = Vela 3a
1 01458U 65058A   19251.49918769  .00000000  00000-0  00000-0 0  3548
2 01458 021.7497 000.3019 4988473 255.8259 347.5176 00.21331543    07

# Worst residual: 31.31 km
# MJD 58735.000000 (2019 Sep  9  0:00)
1965-058A = NORAD 01458 = Vela 3a
1 01458U 65058A   19252.49918769  .00000000  00000-0  00000-0 0  3549
2 01458 021.7500 000.2952 4984546 256.0917 064.1269 00.21297184    05

# Worst residual: 12.75 km
# MJD 58736.000000 (2019 Sep 10  0:00)
1965-058A = NORAD 01458 = Vela 3a
1 01458U 65058A   19253.49918769  .00000000  00000-0  00000-0 0  3540
2 01458 021.7499 000.2984 4975546 255.9159 141.3288 00.21356298    04

# Worst residual: 4.67 km
# MJD 58737.000000 (2019 Sep 11  0:00)
1965-058A = NORAD 01458 = Vela 3a
1 01458U 65058A   19254.49918769  .00000000  00000-0  00000-0 0  3541
2 01458 021.7486 000.2993 4977106 255.8432 218.4014 00.21363060    05

# Worst residual: 9.84 km
# MJD 58738.000000 (2019 Sep 12  0:00)
1965-058A = NORAD 01458 = Vela 3a
1 01458U 65058A   19255.49918769  .00000000  00000-0  00000-0 0  3542
2 01458 021.7474 000.2980 4975524 255.8884 295.1921 00.21369996    04

# Worst residual: 13.29 km
# MJD 58739.000000 (2019 Sep 13  0:00)
1965-058A = NORAD 01458 = Vela 3a
1 01458U 65058A   19256.49918769  .00000000  00000-0  00000-0 0  3543
2 01458 021.7462 000.2965 4966011 255.9410 012.0421 00.21419441    03

# Worst residual: 7.34 km
# MJD 58740.000000 (2019 Sep 14  0:00)
1965-058A = NORAD 01458 = Vela 3a
1 01458U 65058A   19257.49918769  .00000000  00000-0  00000-0 0  3544
2 01458 021.7423 000.2944 4980508 256.0101 088.7555 00.21357555    08

# Worst residual: 12.39 km
# MJD 58741.000000 (2019 Sep 15  0:00)
1965-058A = NORAD 01458 = Vela 3a
1 01458U 65058A   19258.49918769  .00000000  00000-0  00000-0 0  3545
2 01458 021.7389 000.2893 4985548 255.9181 165.8388 00.21385747    02

# Worst residual: 19.18 km
# MJD 58742.000000 (2019 Sep 16  0:00)
1965-058A = NORAD 01458 = Vela 3a
1 01458U 65058A   19259.49918769  .00000000  00000-0  00000-0 0  3546
2 01458 021.7376 000.2967 4981738 255.7423 243.1821 00.21361282    04

# Worst residual: 26.23 km
# MJD 58743.000000 (2019 Sep 17  0:00)
1965-058A = NORAD 01458 = Vela 3a
1 01458U 65058A   19260.49918769  .00000000  00000-0  00000-0 0  3548
2 01458 021.7371 000.2967 4991733 255.5695 320.3187 00.21286431    09

# Worst residual: 15.58 km
# MJD 58744.000000 (2019 Sep 18  0:00)
1965-058A = NORAD 01458 = Vela 3a
1 01458U 65058A   19261.49918769  .00000000  00000-0  00000-0 0  3549
2 01458 021.7378 000.3063 4981373 255.7933 036.9963 00.21374279    00
